0 CZ-4B DEB
1 36290U 08053L   13285.82945502  .00001483  00000-0  14082-3 0  1536
2 36290 097.5487 298.5404 0022128 014.7796 345.4067 14.94797954249152
0 CZ-4B DEB
1 36290U 08053L   13287.83765624  .00002345  00000-0  21965-3 0  1541
2 36290 097.5489 300.4739 0022023 007.7489 352.4068 14.94805339249452
0 CZ-4B DEB
1 36290U 08053L   13289.84584842  .00001655  00000-0  15651-3 0  1554
2 36290 097.5488 302.4067 0021873 000.8110 359.3143 14.94815761249757
0 CZ-4B DEB
1 36290U 08053L   13294.26382871  .00000993  00000-0  95974-4 0  1566
2 36290 097.5491 306.6579 0021597 345.2525 014.8063 14.94834095250414
